SINAH 1                 
1 28893U 05043D   22161.34133044  .00000141  00000+0  37719-4 0  9992
2 28893  98.1110 285.0707 0014977 190.1530 169.9371 14.61702082886175
CUBESAT XI-V            
1 28895U 05043F   22160.59240447  .00000573  00000+0  11743-3 0  9993
2 28895  98.1056 292.0924 0017176 162.0015 198.1799 14.64331508886492
INMARSAT 4-F2           
1 28899U 05044A   22160.41000747  .00000024  00000+0  00000+0 0  9997
2 28899   3.4961  37.3175 0002955  46.6098  25.3248  1.00271971 60773
SPACEWAY 2              
1 28903U 05046B   22160.72834666  .00000119  00000+0  00000+0 0  9999
2 28903   1.8877  88.0997 0000828 276.7202  16.5458  1.00271874 36615
COSMOS 2416             
1 28908U 05048A   22160.78361747  .00000033  00000+0  14184-3 0  9994
2 28908  82.4667 166.6109 0007087 196.8718 336.0336 12.55519036754628
METEOSAT-9 (MSG-2)      
1 28912U 05049B   22160.83688549  .00000141  00000+0  00000+0 0  9996
2 28912   6.0025  66.3507 0001542 354.4870 184.2536  1.00271763 60313
EUTELSAT 174A           
1 28924U 05052A   22160.86241631  .00000025  00000+0  00000+0 0  9994
2 28924   0.4905  92.2968 0006267 344.7575 305.6179  1.00270533 37605
ECHOSTAR 10             
1 28935U 06003A   22160.66227848 -.00000040  00000+0  00000+0 0  9993
2 28935   0.0410 249.8173 0002077 142.9012 353.5176  1.00270901 59748
SPAINSAT                
1 28945U 06007A   22160.36769252 -.00000200  00000+0  00000+0 0  9993
2 28945   0.0415 257.3233 0003269 207.9101 254.8135  1.00282779 59485
EUTELSAT HOTBIRD 13E    
1 28946U 06007B   22161.18911185  .00000103  00000+0  00000+0 0  9990
2 28946   0.0532 150.5790 0004855 320.8085 228.2074  1.00271929 59578
JCSAT-5A                
1 29045U 06010A   22161.35637633 -.00000312  00000+0  00000+0 0  9990
2 29045   0.0447 124.5820 0001957 284.5429 109.9219  1.00270416 59225
ASTRA 1KR               
1 29055U 06012A   22161.33384774  .00000135  00000+0  00000+0 0  9998
2 29055   0.0256 288.0860 0001035 184.0470 285.9389  1.00268672 59023
EROS B                  
1 29079U 06014A   22161.53591642  .00007261  00000+0  30245-3 0  9997
2 29079  97.3821 282.3851 0003218 343.8782  78.6474 15.24016427895322
CLOUDSAT                
1 29107U 06016A   22160.87850771  .00000142  00000+0  37173-4 0  9997
2 29107  98.3278 120.9550 0002968 354.4409   5.6759 14.62978169857920
CALIPSO                 
1 29108U 06016B   22160.87779264  .00000486  00000+0  10456-3 0  9990
2 29108  98.3249 120.5226 0001589  82.3573 277.7808 14.62934374857918
EWS-G1 (GOES 13)        
1 29155U 06018A   22161.21785563  .00000054  00000+0  00000+0 0  9993
2 29155   0.5824  96.9292 0002715  82.5086 218.9258  1.00268698 58798
EUTELSAT 113 WEST A     
1 29162U 06020A   22160.66149352 -.00000022  00000+0  00000+0 0  9998
2 29162   0.0509 120.6582 0003010 318.9806 303.4943  1.00271605 58741
RESURS-DK 1             
1 29228U 06021A   22161.09797252  .00000732  00000+0  61221-4 0  9992
2 29228  69.9337 147.7620 0001682  42.1232 318.0058 15.03222000881300
GALAXY 16 (G-16)        
1 29236U 06023A   22160.80798931 -.00000111  00000+0  00000+0 0  9991
2 29236   0.0460 111.9842 0002810 326.0542  11.9760  1.00271791 58255
GENESIS 1               
1 29252U 06029A   22160.83373171  .00002682  00000+0  12586-3 0  9993
2 29252  64.5214  96.1211 0059209 263.5672  95.8708 15.20623343877817
ARIRANG-2 (KOMPSAT-2)   
1 29268U 06031A   22161.45492964  .00000251  00000+0  58461-4 0  9997
2 29268  97.8901  30.7910 0017449  37.2703 322.9707 14.62304228846875
EUTELSAT HOTBIRD 13B    
1 29270U 06032A   22161.11739147  .00000103  00000+0  00000+0 0  9998
2 29270   0.0700  20.8391 0004348  41.2863 251.5862  1.00272259 58139
JCSAT-3A                
1 29272U 06033A   22161.47757804 -.00000329  00000+0  00000+0 0  9991
2 29272   0.0352 114.3720 0002692 347.0630  97.3056  1.00273130 58048
SYRACUSE 3B             
1 29273U 06033B   22161.11372831 -.00000028  00000+0  00000+0 0  9992
2 29273   0.0418 136.7121 0005345 307.3716 210.1104  1.00271403 58025
KOREASAT 5 (MUGUNGWHA 5)
1 29349U 06034A   22160.85029297 -.00000343  00000+0  00000+0 0  9992
2 29349   0.0145 337.1927 0001539 111.7435 228.4120  1.00266558 26595
HINODE (SOLAR-B)        
1 29479U 06041A   22160.79101523  .00000315  00000+0  67892-4 0  9995
2 29479  98.1209 176.0529 0017109 248.3216 111.6165 14.64821737839639
NAVSTAR 58 (USA 190)    
1 29486U 06042A   22160.68874108  .00000081  00000+0  00000+0 0  9991
2 29486  54.7155 209.5823 0103342  21.3620   1.7076  2.00554273114942
DIRECTV 9S              
1 29494U 06043A   22160.80755322 -.00000098  00000+0  00000+0 0  9990
2 29494   0.0167 302.2510 0003307 142.4834   2.9386  1.00272210 36660
OPTUS D1                
1 29495U 06043B   22161.55192583 -.00000095  00000+0  00000+0 0  9995
2 29495   0.0227 286.3866 0003553 151.1496 180.0333  1.00272077 57426
SHIJIAN-6 02A (SJ-6 02A)
1 29505U 06046A   22161.40317966  .00001267  00000+0  11793-3 0  9994
2 29505  97.7763 182.4736 0005651 134.3433 225.8264 14.96069317851640
SHIJIAN-6 02B (SJ-6 02B)
1 29506U 06046B   22161.44534441 -.00000146  00000+0 -83476-5 0  9994
2 29506  97.7966 182.6716 0000920 200.8857 159.2332 14.94033680851096
XM-4 (BLUES)            
1 29520U 06049A   22161.52831647 -.00000190  00000+0  00000+0 0  9994
2 29520   0.0117 283.0769 0001535  42.4596  38.4153  1.00270858 57285
DMSP 5D-3 F17 (USA 191) 
1 29522U 06050A   22161.49713672 -.00000018  00000+0  13507-4 0  9991
2 29522  98.7665 176.6829 0008663 283.3614  76.6593 14.14101283804926
BADR-4                  
1 29526U 06051A   22161.33515601  .00000160  00000+0  00000+0 0  9997
2 29526   0.0438 329.2973 0002679  88.6134 347.4203  1.00268895 57172
NAVSTAR 59 (USA 192)    
1 29601U 06052A   22160.59699083 -.00000027  00000+0  00000+0 0  9999
2 29601  55.5235 272.3114 0084064  74.2523 286.6854  2.00550541113950
WILDBLUE-1              
1 29643U 06054A   22160.59033115 -.00000034  00000+0  00000+0 0  9993
2 29643   0.0308  99.2720 0001704 338.5959 281.4161  1.00273286 39060
AMC-18                  
1 29644U 06054B   22160.59591311 -.00000200  00000+0  00000+0 0  9996
2 29644   0.0103 341.3398 0002549  93.6138 314.5237  1.00271697 56810
LAPAN-TUBSAT            
1 29709U 07001A   22161.40129992  .00000229  00000+0  35191-4 0  9998
2 29709  97.9656 124.1078 0011463 280.9651  79.0283 14.82488818833465
CARTOSAT-2 (IRS-P7)     
1 29710U 07001B   22161.22057498  .00014834  00000+0  36876-3 0  9998
2 29710  97.8654 266.2686 0153042  83.1657 278.6966 15.29143254835131
THEMIS A                
1 30580U 07004A   22161.36222857 -.00000080  00000+0 -26529-1 0  9998
2 30580  14.5637 346.1319 8379505 164.0958 266.5516  0.87834995 53069
OE (NEXTSAT)            
1 30774U 07006C   22161.08840428  .00016051  00000+0  24677-3 0  9991
2 30774  45.9987  49.8534 0000808   7.1839 352.9081 15.54175931852691
FALCONSAT-3             
1 30776U 07006E   22160.48274658  .00025676  00000+0  39999-3 0  9998
2 30776  35.4315 312.4721 0002888  11.0763 349.0032 15.52911558848340
CFESAT                  
1 30777U 07006F   22161.20449768  .00040943  00000+0  56106-3 0  9999
2 30777  35.4204 345.1380 0006675 354.2950   5.7706 15.56300073847958
SKYNET 5A               
1 30794U 07007B   22161.13378850 -.00000256  00000+0  00000+0 0  9996
2 30794   2.0104  88.6386 0002795   3.2308 309.9786  1.00272820 55936
THEMIS D                
1 30797U 07004D   22161.12079299 -.00000031  00000+0  00000+0 0  9991
2 30797  10.4535 335.9077 8342482 177.4369 200.9154  0.87837823 52596
THEMIS E                
1 30798U 07004E   22161.18858854 -.00000027  00000+0  00000+0 0  9995
2 30798  11.1997 348.5896 8328783 167.0034 211.2704  0.87841191 53004
ANIK F3                 
1 31102U 07009A   22161.25303205  .00000015  00000+0  00000+0 0  9999
2 31102   0.0183   0.1926 0002485  70.2983 160.4803  1.00270892 55615
HAIYANG-1B              
1 31113U 07010A   22160.50646454  .00000037  00000+0  30159-4 0  9993
2 31113  98.3191 185.9538 0012740 232.8443 127.1577 14.30316725791370
SAUDISAT 3              
1 31118U 07012B   22161.36017355  .00000094  00000+0  24098-4 0  9995
2 31118  97.9690 108.5765 0014237 214.1382 145.8910 14.69325595812116
SAUDICOMSAT 7           
1 31119U 07012C   22161.09929875  .00000256  00000+0  59273-4 0  9998
2 31119  98.1842 107.0248 0061019 113.4366 247.3266 14.62082582807689
SAUDICOMSAT 6           
1 31121U 07012E   22161.23751739  .00000171  00000+0  45505-4 0  9998
2 31121  98.2259 102.4544 0075421 214.3535 145.2775 14.58872671805965
SAUDICOMSAT 5           
1 31124U 07012H   22160.83295494  .00000319  00000+0  69197-4 0  9994
2 31124  98.1528 108.3696 0052665  62.2302 298.4226 14.63806598808478
SAUDICOMSAT 3           
1 31125U 07012J   22160.83276362  .00000390  00000+0  79944-4 0  9998
2 31125  98.1182 109.8896 0043345  10.1943 350.0129 14.65628300809395
SAUDICOMSAT 4           
1 31127U 07012L   22160.82216734  .00000199  00000+0  49573-4 0  9998
2 31127  98.2072 105.1076 0068065 161.8694 198.4956 14.60595652806766
AGILE                   
1 31135U 07013A   22161.26634688  .00007786  00000+0  17026-3 0  9995
2 31135   2.4683 288.8715 0010300 336.8109  23.1481 15.37751890843236
AIM                     
1 31304U 07015A   22160.87910291  .00004838  00000+0  24428-3 0  9997
2 31304  97.8561  79.7984 0006511  55.8963 304.2886 15.17589370830044
ASTRA 1L                
1 31306U 07016A   22160.83156517  .00000135  00000+0  00000+0 0  9991
2 31306   0.0449 321.3147 0002290  59.0176 196.3809  1.00272721 30296
GALAXY 17 (G-17)        
1 31307U 07016B   22161.09663355 -.00000159  00000+0  00000+0 0  9991
2 31307   0.0179 352.8526 0002608  78.4299 130.9651  1.00271615 55355
YAOGAN 2                
1 31490U 07019A   22161.48035954  .00000435  00000+0  68813-4 0  9995
2 31490  98.2504 313.3747 0019334 313.2764  46.6832 14.77385701810541
